NORAD_CAT_ID,OBJECT_NAME,OBJECT_TYPE,EPOCH,MEAN_MOTION,ECCENTRICITY,INCLINATION,RA_OF_ASC_NODE,ARG_OF_PERICENTER,MEAN_ANOMALY,BSTAR,MEAN_MOTION_DOT,MEAN_MOTION_DDOT,TLE_LINE0,TLE_LINE1,TLE_LINE2,SEMIMAJOR_AXIS,PERIOD,APOGEE,PERIGEE,DECAYED
53560.0,STARLINK-4564,PAYLOAD,2023-01-13 04:18:16,15.08866094,0.0001651,53.2176,183.6229,65.0846,295.0318,-0.00040324,-6.705e-05,0.0,0 STARLINK-4564,1 53560U 22101AK  23013.17935736 -.00006705  00000-0 -40324-3 0  9991,2 53560  53.2176 183.6229 0001651  65.0846 295.0318 15.08866094 22603,6917.801,95.436,540.808,538.524,0.0
53560.0,STARLINK-4564,PAYLOAD,2023-01-13 13:50:35,15.08834822,0.0001712,53.2177,181.8387,62.1256,297.9909,6.5755e-05,7.58e-06,0.0,0 STARLINK-4564,1 53560U 22101AK  23013.57680322  .00000758  00000-0  65755-4 0  9999,2 53560  53.2177 181.8387 0001712  62.1256 297.9909 15.08834822 22667,6917.896,95.438,540.946,538.577,0.0
53560.0,STARLINK-4564,PAYLOAD,2023-01-14 20:02:55,15.08841151,0.0001965,53.2169,176.1895,66.3578,293.762,5.9891e-06,-1.93e-06,0.0,0 STARLINK-4564,1 53560U 22101AK  23014.83536396 -.00000193  00000-0  59891-5 0  9999,2 53560  53.2169 176.1895 0001965  66.3578 293.7620 15.08841151 22850,6917.877,95.437,541.101,538.383,0.0
53560.0,STARLINK-4564,PAYLOAD,2023-01-15 10:21:24,15.08837091,0.0002020999999999,53.2169,173.5133,67.0856,293.0349,-2.6594e-05,-7.11e-06,0.0,0 STARLINK-4564,1 53560U 22101AK  23015.43152791 -.00000711  00000-0 -26594-4 0  9999,2 53560  53.2169 173.5133 0002021  67.0856 293.0349 15.08837091 22946,6917.889,95.438,541.1519999999999,538.356,0.0
53560.0,STARLINK-4564,PAYLOAD,2023-01-15 16:42:56,15.08840739,0.0001673,53.2174,172.3237,68.9267,291.1904,-1.0125e-05,-4.49e-06,0.0,0 STARLINK-4564,1 53560U 22101AK  23015.69648422 -.00000449  00000-0 -10125-4 0  9999,2 53560  53.2174 172.3237 0001673  68.9267 291.1904 15.08840739 22985,6917.878000000001,95.438,540.9,538.586,0.0
53560.0,STARLINK-4564,PAYLOAD,2023-01-16 10:12:11,15.08835344,0.0001769,53.2175,169.053,71.1989,288.9195,-4.0959e-05,-9.4e-06,0.0,0 STARLINK-4564,1 53560U 22101AK  23016.42512811 -.00000940  00000-0 -40959-4 0  9997,2 53560  53.2175 169.0530 0001769  71.1989 288.9195 15.08835344 23093,6917.895,95.438,540.9830000000001,538.536,0.0
53560.0,STARLINK-4564,PAYLOAD,2023-01-16 13:22:57,15.08837763,0.0001792,53.2186,168.4586,73.1067,287.0121,-1.5932999999999998e-05,-5.42e-06,0.0,0 STARLINK-4564,1 53560U 22101AK  23016.55760599 -.00000542  00000-0 -15933-4 0  9991,2 53560  53.2186 168.4586 0001792  73.1067 287.0121 15.08837763 23113,6917.887,95.438,540.992,538.513,0.0
53560.0,STARLINK-4564,PAYLOAD,2023-01-16 18:09:06,15.08842926,0.0001749,53.2179,167.56599999999997,74.335,285.7835,2.273e-05,7.4e-07,0.0,0 STARLINK-4564,1 53560U 22101AK  23016.75632106  .00000074  00000-0  22730-4 0  9996,2 53560  53.2179 167.5660 0001749  74.3350 285.7835 15.08842926 23145,6917.871,95.437,540.946,538.5269999999999,0.0
53560.0,STARLINK-4564,PAYLOAD,2023-01-17 10:02:58,15.08831747,0.0001601,53.2186,164.5908,78.8289,281.2883,-1.3691e-05,-5.06e-06,0.0,0 STARLINK-4564,1 53560U 22101AK  23017.41872989 -.00000506  00000-0 -13691-4 0  9993,2 53560  53.2186 164.5908 0001601  78.8289 281.2883 15.08831747 23246,6917.906,95.438,540.878,538.663,0.0
53560.0,STARLINK-4564,PAYLOAD,2023-01-17 19:35:17,15.08835923,0.0001530999999999,53.2191,162.8063,77.5879,282.5285,-6.0904e-05,-1.257e-05,0.0,0 STARLINK-4564,1 53560U 22101AK  23017.81617060 -.00001257  00000-0 -60904-4 0  9997,2 53560  53.2191 162.8063 0001531  77.5879 282.5285 15.08835923 23305,6917.893,95.438,540.817,538.6990000000001,0.0
53560.0,STARLINK-4564,PAYLOAD,2023-01-18 09:53:45,15.08832564,0.0001588999999999,53.2178,160.1319,84.7985,275.3189,-1.1189e-05,-4.66e-06,0.0,0 STARLINK-4564,1 53560U 22101AK  23018.41233238 -.00000466  00000-0 -11189-4 0  9997,2 53560  53.2178 160.1319 0001589  84.7985 275.3189 15.08832564 23396,6917.903,95.438,540.867,538.669,0.0
53560.0,STARLINK-4564,PAYLOAD,2023-01-18 16:15:17,15.08844053,0.0001216,53.2182,158.9422,80.6617,279.4513,9.0388e-05,1.151e-05,0.0,0 STARLINK-4564,1 53560U 22101AK  23018.67728155  .00001151  00000-0  90388-4 0  9990,2 53560  53.2182 158.9422 0001216  80.6617 279.4513 15.08844053 23432,6917.868,95.437,540.5740000000001,538.8919999999999,0.0
53560.0,STARLINK-4564,PAYLOAD,2023-01-19 01:47:36,15.08841145,0.0001102,53.2171,157.1585,68.1164,291.9945,3.3752e-06,-2.34e-06,0.0,0 STARLINK-4564,1 53560U 22101AK  23019.07472567 -.00000234  00000-0  33752-5 0  9993,2 53560  53.2171 157.1585 0001102  68.1164 291.9945 15.08841145 23496,6917.877,95.437,540.504,538.98,0.0
53560.0,STARLINK-4564,PAYLOAD,2023-01-19 08:09:09,15.08830746,0.0001773,53.2169,155.9688,85.8681,274.2514,-2.6854e-05,-7.15e-06,0.0,0 STARLINK-4564,1 53560U 22101AK  23019.33969633 -.00000715  00000-0 -26854-4 0  9996,2 53560  53.2169 155.9688 0001773  85.8681 274.2514 15.08830746 23533,6917.909000000001,95.438,541.0,538.547,0.0
53560.0,STARLINK-4564,PAYLOAD,2023-01-20 01:38:23,15.08842815,0.0001422,53.2204,152.7003,97.535,262.5804,-5.6335e-05,-1.184e-05,0.0,0 STARLINK-4564,1 53560U 22101AK  23020.06833066 -.00001184  00000-0 -56335-4 0  9996,2 53560  53.2204 152.7003 0001422  97.5350 262.5804 15.08842815 23647,6917.871999999999,95.437,540.721,538.753,0.0
53560.0,STARLINK-4564,PAYLOAD,2023-01-20 15:56:50,15.08856311,9.67e-05,53.2174,150.0219,102.4169,257.6932,8.3268e-05,1.038e-05,0.0,0 STARLINK-4564,1 53560U 22101AK  23020.66447634  .00001038  00000-0  83268-4 0  9995,2 53560  53.2174 150.0219 0000967 102.4169 257.6932 15.08856311 23733,6917.831,95.437,540.364,539.027,0.0
53560.0,STARLINK-4564,PAYLOAD,2023-01-21 01:29:10,15.08841556,0.000113,53.2189,148.2385,80.2482,279.8638,8.7175e-06,-1.49e-06,0.0,0 STARLINK-4564,1 53560U 22101AK  23021.06192787 -.00000149  00000-0  87175-5 0  9991,2 53560  53.2189 148.2385 0001130  80.2482 279.8638 15.08841556 23796,6917.876,95.437,540.5219999999999,538.9590000000001,0.0
53560.0,STARLINK-4564,PAYLOAD,2023-01-21 09:26:07,15.0882878,0.0001636999999999,53.2205,146.7532,92.0251,268.0929,4.8641000000000006e-06,-2.11e-06,0.0,0 STARLINK-4564,1 53560U 22101AK  23021.39313913 -.00000211  00000-0  48641-5 0  9998,2 53560  53.2205 146.7532 0001637  92.0251 268.0929 15.08828780 23842,6917.915,95.438,540.9119999999999,538.6469999999999,0.0
53560.0,STARLINK-4564,PAYLOAD,2023-01-21 15:47:38,15.08845096,0.000134,53.2193,145.5613,80.0074,280.107,5.9958e-05,6.67e-06,0.0,0 STARLINK-4564,1 53560U 22101AK  23021.65808702  .00000667  00000-0  59958-4 0  9998,2 53560  53.2193 145.5613 0001340  80.0074 280.1070 15.08845096 23881,6917.865,95.437,540.6569999999999,538.803,0.0
53560.0,STARLINK-4564,PAYLOAD,2023-01-22 07:41:30,15.08837474,0.0001536,53.2198,142.592,74.1565,285.9597,-4.2618e-05,-9.66e-06,0.0,0 STARLINK-4564,1 53560U 22101AK  23022.32049659 -.00000966  00000-0 -42618-4 0  9990,2 53560  53.2198 142.5920 0001536  74.1565 285.9597 15.08837474 23989,6917.888000000001,95.438,540.816,538.691,0.0
53560.0,STARLINK-4564,PAYLOAD,2023-01-23 01:10:44,15.08848914,0.0001247,53.2183,139.3187,82.0036,278.1098,-6.0159e-05,-1.245e-05,0.0,0 STARLINK-4564,1 53560U 22101AK  23023.04912715 -.00001245  00000-0 -60159-4 0  9993,2 53560  53.2183 139.3187 0001247  82.0036 278.1098 15.08848914 24096,6917.853,95.437,540.581,538.855,0.0
53560.0,STARLINK-4564,PAYLOAD,2023-01-24 10:33:51,15.088356900000004,0.0001256,53.2186,133.0738,90.8282,269.2855,-5.9346e-05,-1.232e-05,0.0,0 STARLINK-4564,1 53560U 22101AK  23024.44017745 -.00001232  00000-0 -59346-4 0  9999,2 53560  53.2186 133.0738 0001256  90.8282 269.2855 15.08835690 24305,6917.894,95.438,540.627,538.89,0.0
53560.0,STARLINK-4564,PAYLOAD,2023-01-25 12:00:01,15.08829914,0.0001144,53.2202,128.3155,81.7961,278.3161,-1.1687e-05,-4.74e-06,0.0,0 STARLINK-4564,1 53560U 22101AK  23025.50002219 -.00000474  00000-0 -11687-4 0  9990,2 53560  53.2202 128.3155 0001144  81.7961 278.3161 15.08829914 24463,6917.911,95.438,540.568,538.985,0.0
53560.0,STARLINK-4564,PAYLOAD,2023-01-25 13:35:24,15.08833705,0.0001109,53.2193,128.0192,88.6847,271.4272,1.6628e-05,-2.3e-07,0.0,0 STARLINK-4564,1 53560U 22101AK  23025.56625870 -.00000023  00000-0  16628-4 0  9999,2 53560  53.2193 128.0192 0001109  88.6847 271.4272 15.08833705 24471,6917.9,95.438,540.5319999999999,538.997,0.0
53560.0,STARLINK-4564,PAYLOAD,2023-01-25 23:07:43,15.08837152,0.0001421,53.2192,126.2351,90.7916,269.3239,-2.1164e-05,-6.25e-06,0.0,0 STARLINK-4564,1 53560U 22101AK  23025.96369943 -.00000625  00000-0 -21164-4 0  9999,2 53560  53.2192 126.2351 0001421  90.7916 269.3239 15.08837152 24531,6917.889,95.438,540.737,538.771,0.0
53560.0,STARLINK-4564,PAYLOAD,2023-01-26 13:26:11,15.08846747,0.0001336,53.2208,123.5567,84.1333,275.9812,2.6055e-05,1.27e-06,0.0,0 STARLINK-4564,1 53560U 22101AK  23026.55985274  .00000127  00000-0  26055-4 0  9995,2 53560  53.2208 123.5567 0001336  84.1333 275.9812 15.08846747 24623,6917.86,95.437,540.649,538.8009999999999,0.0
53560.0,STARLINK-4564,PAYLOAD,2023-01-26 22:58:30,15.08839359,0.0001246,53.2203,121.7732,83.9304,276.183,8.2894e-05,1.032e-05,0.0,0 STARLINK-4564,1 53560U 22101AK  23026.95729519  .00001032  00000-0  82894-4 0  9996,2 53560  53.2203 121.7732 0001246  83.9304 276.1830 15.08839359 24687,6917.882,95.438,540.609,538.885,0.0
53560.0,STARLINK-4564,PAYLOAD,2023-01-27 11:41:36,15.08828577,0.0001149,53.2187,119.3968,94.3805,265.7318,-6.1394e-05,-1.264e-05,0.0,0 STARLINK-4564,1 53560U 22101AK  23027.48723000 -.00001264  00000-0 -61394-4 0  9995,2 53560  53.2187 119.3968 0001149  94.3805 265.7318 15.08828577 24760,6917.915,95.438,540.575,538.985,0.0
53560.0,STARLINK-4564,PAYLOAD,2023-01-27 22:49:18,15.08837013,0.0001121,53.2192,117.3156,84.2227,275.8893,6.294600000000001e-06,-1.88e-06,0.0,0 STARLINK-4564,1 53560U 22101AK  23027.95090400 -.00000188  00000-0  62946-5 0  9996,2 53560  53.2192 117.3156 0001121  84.2227 275.8893 15.08837013 24832,6917.89,95.438,540.53,538.979,0.0
